start=new Date('2022-04-30T00:00:00.000Z').valueOf();
sats=[{"MEAN_ELEMENT_THEORY":"SGP4","LAUNCH_DATE":"2020-02-17","OBJECT_NAME":"STARLINK-1192","CLASSIFICATION_TYPE":"U","GP_ID":"202307672","SEMIMAJOR_AXIS":"6919.529","ARG_OF_PERICENTER":"200.6287","PERIAPSIS":"540.937","REV_AT_EPOCH":"12231","EPHEMERIS_TYPE":"0","TIME_SYSTEM":"UTC","MEAN_ANOMALY":"159.4676","ELEMENT_SET_NO":"999","RA_OF_ASC_NODE":"256.1895","OBJECT_TYPE":"PAYLOAD","DECAY_DATE":null,"NORAD_CAT_ID":"45180","INCLINATION":"53.0523","MEAN_MOTION":"15.08300690","MEAN_MOTION_DOT":"0.00015772","TLE_LINE1":"1 45180U 20012C   22119.63311649  .00015772  00000-0  10216-2 0  9995","CENTER_NAME":"EARTH","RCS_SIZE":"LARGE","APOAPSIS":"541.852","REF_FRAME":"TEME","ECCENTRICITY":"0.00006610","BSTAR":"0.00102160000000","EPOCH":"2022-04-29T15:11:41.264736","COUNTRY_CODE":"US","OBJECT_ID":"2020-012C","TLE_LINE2":"2 45180  53.0523 256.1895 0000661 200.6287 159.4676 15.08300690122311","SITE":"AFETR","PERIOD":"95.472","MEAN_MOTION_DDOT":"0.0000000000000","FILE":"3421985"},{"RA_OF_ASC_NODE":"255.8694","OBJECT_TYPE":"PAYLOAD","EPHEMERIS_TYPE":"0","TIME_SYSTEM":"UTC","REV_AT_EPOCH":"12233","ELEMENT_SET_NO":"999","MEAN_ANOMALY":"307.0329","GP_ID":"202307922","SEMIMAJOR_AXIS":"6925.337","PERIAPSIS":"545.976","ARG_OF_PERICENTER":"53.0822","CLASSIFICATION_TYPE":"U","LAUNCH_DATE":"2020-02-17","OBJECT_NAME":"STARLINK-1200","MEAN_ELEMENT_THEORY":"SGP4","MEAN_MOTION_DDOT":"0.0000000000000","PERIOD":"95.592","SITE":"AFETR","TLE_LINE2":"2 45181  53.0562 255.8694 0001769  53.0822 307.0329 15.06403905122332","FILE":"3421985","EPOCH":"2022-04-29T19:09:18.648864","BSTAR":"-0.00057119000000","ECCENTRICITY":"0.00017690","REF_FRAME":"TEME","OBJECT_ID":"2020-012D","COUNTRY_CODE":"US","TLE_LINE1":"1 45181U 20012D   22119.79813251 -.00008780  00000-0 -57119-3 0  9996","MEAN_MOTION_DOT":"-0.00008780","APOAPSIS":"548.427","CENTER_NAME":"EARTH","RCS_SIZE":"LARGE","NORAD_CAT_ID":"45181","DECAY_DATE":null,"MEAN_MOTION":"15.06403905","INCLINATION":"53.0562"},{"PERIOD":"95.592","SITE":"AFETR","TLE_LINE2":"2 45182  53.0528 235.7843 0001606  56.3630 303.7512 15.06402110122469","MEAN_MOTION_DDOT":"0.0000000000000","FILE":"3421985","ECCENTRICITY":"0.00016060","REF_FRAME":"TEME","BSTAR":"-0.00006351200000","EPOCH":"2022-04-29T19:38:30.578208","OBJECT_ID":"2020-012E","COUNTRY_CODE":"US","TLE_LINE1":"1 45182U 20012E   22119.81840947 -.00001227  00000-0 -63512-4 0  9996","MEAN_MOTION_DOT":"-0.00001227","RCS_SIZE":"LARGE","CENTER_NAME":"EARTH","APOAPSIS":"548.319","NORAD_CAT_ID":"45182","DECAY_DATE":null,"INCLINATION":"53.0528","MEAN_MOTION":"15.06402110","OBJECT_TYPE":"PAYLOAD","RA_OF_ASC_NODE":"235.7843","REV_AT_EPOCH":"12246","EPHEMERIS_TYPE":"0","TIME_SYSTEM":"UTC","MEAN_ANOMALY":"303.7512","ELEMENT_SET_NO":"999","SEMIMAJOR_AXIS":"6925.342","GP_ID":"202308674","ARG_OF_PERICENTER":"56.3630","PERIAPSIS":"546.095","LAUNCH_DATE":"2020-02-17","OBJECT_NAME":"STARLINK-1201","MEAN_ELEMENT_THEORY":"SGP4","CLASSIFICATION_TYPE":"U"},{"RA_OF_ASC_NODE":"255.7024","OBJECT_TYPE":"PAYLOAD","EPHEMERIS_TYPE":"0","TIME_SYSTEM":"UTC","REV_AT_EPOCH":"12234","ELEMENT_SET_NO":"999","MEAN_ANOMALY":"298.3472","GP_ID":"202308431","SEMIMAJOR_AXIS":"6925.353","PERIAPSIS":"546.189","ARG_OF_PERICENTER":"61.7666","CLASSIFICATION_TYPE":"U","LAUNCH_DATE":"2020-02-17","OBJECT_NAME":"STARLINK-1202","MEAN_ELEMENT_THEORY":"SGP4","MEAN_MOTION_DDOT":"0.0000000000000","PERIOD":"95.592","TLE_LINE2":"2 45183  53.0535 255.7024 0001487  61.7666 298.3472 15.06398441122349","SITE":"AFETR","FILE":"3421985","BSTAR":"-0.00009934900000","EPOCH":"2022-04-29T20:02:24.011232","ECCENTRICITY":"0.00014870","REF_FRAME":"TEME","OBJECT_ID":"2020-012F","COUNTRY_CODE":"US","TLE_LINE1":"1 45183U 20012F   22119.83500013 -.00001761  00000-0 -99349-4 0  9996","MEAN_MOTION_DOT":"-0.00001761","APOAPSIS":"548.248","RCS_SIZE":"LARGE","CENTER_NAME":"EARTH","DECAY_DATE":null,"NORAD_CAT_ID":"45183","MEAN_MOTION":"15.06398441","INCLINATION":"53.0535"},{"PERIOD":"95.592","TLE_LINE2":"2 45184  53.0547 236.3382 0001735  49.2329 310.8810 15.06404090121633","SITE":"AFETR","MEAN_MOTION_DDOT":"0.0000000000000","FILE":"3421985","ECCENTRICITY":"0.00017350","REF_FRAME":"TEME","EPOCH":"2022-04-29T16:38:02.512032","BSTAR":"-0.00031465000000","OBJECT_ID":"2020-012G","COUNTRY_CODE":"US","TLE_LINE1":"1 45184U 20012G   22119.69308463 -.00004966  00000-0 -31465-3 0  9990","MEAN_MOTION_DOT":"-0.00004966","CENTER_NAME":"EARTH","RCS_SIZE":"LARGE","APOAPSIS":"548.403","DECAY_DATE":null,"NORAD_CAT_ID":"45184","INCLINATION":"53.0547","MEAN_MOTION":"15.06404090","RA_OF_ASC_NODE":"236.3382","OBJECT_TYPE":"PAYLOAD","REV_AT_EPOCH":"12163","TIME_SYSTEM":"UTC","EPHEMERIS_TYPE":"0","MEAN_ANOMALY":"310.8810","ELEMENT_SET_NO":"999","GP_ID":"202307179","SEMIMAJOR_AXIS":"6925.336","ARG_OF_PERICENTER":"49.2329","PERIAPSIS":"545.999","OBJECT_NAME":"STARLINK-1205","LAUNCH_DATE":"2020-02-17","MEAN_ELEMENT_THEORY":"SGP4","CLASSIFICATION_TYPE":"U"},{"OBJECT_ID":"2020-012H","COUNTRY_CODE":"US","EPOCH":"2022-04-29T19:51:47.728800","BSTAR":"-0.00004742000000","ECCENTRICITY":"0.00012290","REF_FRAME":"TEME","FILE":"3421985","MEAN_MOTION_DDOT":"0.0000000000000","PERIOD":"95.592","TLE_LINE2":"2 45185  53.0554 255.7333 0001229  52.6355 307.4745 15.06395994122281","SITE":"AFETR","MEAN_MOTION":"15.06395994","INCLINATION":"53.0554","DECAY_DATE":null,"NORAD_CAT_ID":"45185","APOAPSIS":"548.077","RCS_SIZE":"LARGE","CENTER_NAME":"EARTH","TLE_LINE1":"1 45185U 20012H   22119.82763575 -.00000988  00000-0 -47420-4 0  9994","MEAN_MOTION_DOT":"-0.00000988","ELEMENT_SET_NO":"999","MEAN_ANOMALY":"307.4745","EPHEMERIS_TYPE":"0","TIME_SYSTEM":"UTC","REV_AT_EPOCH":"12228","RA_OF_ASC_NODE":"255.7333","OBJECT_TYPE":"PAYLOAD","CLASSIFICATION_TYPE":"U","OBJECT_NAME":"STARLINK-1216","LAUNCH_DATE":"2020-02-17","MEAN_ELEMENT_THEORY":"SGP4","PERIAPSIS":"546.375","ARG_OF_PERICENTER":"52.6355","SEMIMAJOR_AXIS":"6925.361","GP_ID":"202307429"},{"RA_OF_ASC_NODE":"255.9676","OBJECT_TYPE":"PAYLOAD","EPHEMERIS_TYPE":"0","TIME_SYSTEM":"UTC","REV_AT_EPOCH":"12168","ELEMENT_SET_NO":"999","MEAN_ANOMALY":"306.3954","SEMIMAJOR_AXIS":"6925.350","GP_ID":"202283425","PERIAPSIS":"546.019","ARG_OF_PERICENTER":"53.7195","CLASSIFICATION_TYPE":"U","OBJECT_NAME":"STARLINK-1224","LAUNCH_DATE":"2020-02-17","MEAN_ELEMENT_THEORY":"SGP4","MEAN_MOTION_DDOT":"0.0000000000000","PERIOD":"95.592","TLE_LINE2":"2 45186  53.0556 255.9676 0001727  53.7195 306.3954 15.06399648121686","SITE":"AFETR","FILE":"3421761","EPOCH":"2022-04-29T18:37:28.509888","BSTAR":"0.00006451600000","ECCENTRICITY":"0.00017270","REF_FRAME":"TEME","OBJECT_ID":"2020-012J","COUNTRY_CODE":"US","TLE_LINE1":"1 45186U 20012J   22119.77602442  .00000679  00000-0  64516-4 0  9994","MEAN_MOTION_DOT":"0.00000679","APOAPSIS":"548.411","RCS_SIZE":"LARGE","CENTER_NAME":"EARTH","NORAD_CAT_ID":"45186","DECAY_DATE":null,"MEAN_MOTION":"15.06399648","INCLINATION":"53.0556"},{"MEAN_MOTION_DDOT":"0.0000000000000","PERIOD":"95.592","TLE_LINE2":"2 45187  53.0568 256.2485 0001777  54.2679 305.8476 15.06409306122317","SITE":"AFETR","FILE":"3421985","BSTAR":"0.00012816000000","EPOCH":"2022-04-29T17:07:14.437056","ECCENTRICITY":"0.00017770","REF_FRAME":"TEME","OBJECT_ID":"2020-012K","COUNTRY_CODE":"US","TLE_LINE1":"1 45187U 20012K   22119.71336154  .00001628  00000-0  12816-3 0  9993","MEAN_MOTION_DOT":"0.00001628","APOAPSIS":"548.416","CENTER_NAME":"EARTH","RCS_SIZE":"LARGE","DECAY_DATE":null,"NORAD_CAT_ID":"45187","MEAN_MOTION":"15.06409306","INCLINATION":"53.0568","OBJECT_TYPE":"PAYLOAD","RA_OF_ASC_NODE":"256.2485","TIME_SYSTEM":"UTC","EPHEMERIS_TYPE":"0","REV_AT_EPOCH":"12231","ELEMENT_SET_NO":"999","MEAN_ANOMALY":"305.8476","GP_ID":"202308925","SEMIMAJOR_AXIS":"6925.320","PERIAPSIS":"545.954","ARG_OF_PERICENTER":"54.2679","CLASSIFICATION_TYPE":"U","OBJECT_NAME":"STARLINK-1225","LAUNCH_DATE":"2020-02-17","MEAN_ELEMENT_THEORY":"SGP4"},{"PERIAPSIS":"545.984","ARG_OF_PERICENTER":"47.7448","SEMIMAJOR_AXIS":"6925.308","GP_ID":"202307673","CLASSIFICATION_TYPE":"U","LAUNCH_DATE":"2020-02-17","OBJECT_NAME":"STARLINK-1228","MEAN_ELEMENT_THEORY":"SGP4","RA_OF_ASC_NODE":"216.1268","OBJECT_TYPE":"PAYLOAD","ELEMENT_SET_NO":"999","MEAN_ANOMALY":"312.3687","TIME_SYSTEM":"UTC","EPHEMERIS_TYPE":"0","REV_AT_EPOCH":"12283","APOAPSIS":"548.361","CENTER_NAME":"EARTH","RCS_SIZE":"LARGE","TLE_LINE1":"1 45188U 20012L   22119.74284992  .00001617  00000-0  12736-3 0  9998","MEAN_MOTION_DOT":"0.00001617","MEAN_MOTION":"15.06413339","INCLINATION":"53.0546","DECAY_DATE":null,"NORAD_CAT_ID":"45188","FILE":"3421985","MEAN_MOTION_DDOT":"0.0000000000000","PERIOD":"95.591","TLE_LINE2":"2 45188  53.0546 216.1268 0001716  47.7448 312.3687 15.06413339122837","SITE":"AFETR","OBJECT_ID":"2020-012L","COUNTRY_CODE":"US","BSTAR":"0.00012736000000","EPOCH":"2022-04-29T17:49:42.233088","ECCENTRICITY":"0.00017160","REF_FRAME":"TEME"},{"INCLINATION":"53.0542","MEAN_MOTION":"15.06403090","DECAY_DATE":null,"NORAD_CAT_ID":"45189","RCS_SIZE":"LARGE","CENTER_NAME":"EARTH","APOAPSIS":"548.299","TLE_LINE1":"1 45189U 20012M   22119.84974154  .00001189  00000-0  98717-4 0  9994","MEAN_MOTION_DOT":"0.00001189","OBJECT_ID":"2020-012M","COUNTRY_CODE":"US","ECCENTRICITY":"0.00015810","REF_FRAME":"TEME","EPOCH":"2022-04-29T20:23:37.669056","BSTAR":"0.00009871700000","FILE":"3421985","PERIOD":"95.592","SITE":"AFETR","TLE_LINE2":"2 45189  53.0542 255.6399 0001581  54.9366 305.1771 15.06403090119569","MEAN_MOTION_DDOT":"0.0000000000000","LAUNCH_DATE":"2020-02-17","OBJECT_NAME":"STARLINK-1230","MEAN_ELEMENT_THEORY":"SGP4","CLASSIFICATION_TYPE":"U","ARG_OF_PERICENTER":"54.9366","PERIAPSIS":"546.109","GP_ID":"202307923","SEMIMAJOR_AXIS":"6925.339","MEAN_ANOMALY":"305.1771","ELEMENT_SET_NO":"999","REV_AT_EPOCH":"11956","EPHEMERIS_TYPE":"0","TIME_SYSTEM":"UTC","RA_OF_ASC_NODE":"255.6399","OBJECT_TYPE":"PAYLOAD"}];
